[
    {
        "Altitude(m)": 567684.3998787019,
        "Argument of Periapsis(deg)": 0.013245982221427002,
        "Eccentricity": 0.0,
        "Inclination(deg)": 53.0,
        "Latitude(deg)": -42.81837773900222,
        "Longitude(deg)": 169.44120352796358,
        "Mean Anomaly(deg)": -57.99861426484491,
        "RAAN(deg)": 314.9802867370561,
        "Satellite Name": "Starlink Shell 1 1403",
        "Satellite Number": 1403,
        "Semi-Major Axis(m)": 6931778.249405717,
        "Time(s)": 380
    },
    {
        "Altitude(m)": 567534.8408360919,
        "Argument of Periapsis(deg)": 0.013594560700938237,
        "Eccentricity": 0.0,
        "Inclination(deg)": 53.0,
        "Latitude(deg)": -42.45631588656105,
        "Longitude(deg)": 170.09168880025655,
        "Mean Anomaly(deg)": -57.37178306128811,
        "RAAN(deg)": 314.97976796697856,
        "Satellite Name": "Starlink Shell 1 1403",
        "Satellite Number": 1403,
        "Semi-Major Axis(m)": 6931778.249405717,
        "Time(s)": 390
    },
    {
        "Altitude(m)": 567383.5058681379,
        "Argument of Periapsis(deg)": 0.013943139180449475,
        "Eccentricity": 0.0,
        "Inclination(deg)": 53.0,
        "Latitude(deg)": -42.09009680317104,
        "Longitude(deg)": 170.7342260952079,
        "Mean Anomaly(deg)": -56.744951857731365,
        "RAAN(deg)": 314.97924919690104,
        "Satellite Name": "Starlink Shell 1 1403",
        "Satellite Number": 1403,
        "Semi-Major Axis(m)": 6931778.249405717,
        "Time(s)": 400
    },
    {
        "Altitude(m)": 567230.454230542,
        "Argument of Periapsis(deg)": 0.014291717659960712,
        "Eccentricity": 0.0,
        "Inclination(deg)": 53.0,
        "Latitude(deg)": -41.71981867240178,
        "Longitude(deg)": 171.3689203545646,
        "Mean Anomaly(deg)": -56.118120654174724,
        "RAAN(deg)": 314.97873042682363,
        "Satellite Name": "Starlink Shell 1 1403",
        "Satellite Number": 1403,
        "Semi-Major Axis(m)": 6931778.249405717,
        "Time(s)": 410
    },
    {
        "Altitude(m)": 567075.7457974913,
        "Argument of Periapsis(deg)": 0.014640296139471948,
        "Eccentricity": 0.0,
        "Inclination(deg)": 53.0,
        "Latitude(deg)": -41.345577853016096,
        "Longitude(deg)": 171.99587868914512,
        "Mean Anomaly(deg)": -55.49128945061798,
        "RAAN(deg)": 314.97821165674617,
        "Satellite Name": "Starlink Shell 1 1403",
        "Satellite Number": 1403,
        "Semi-Major Axis(m)": 6931778.249405717,
        "Time(s)": 420
    },
    {
        "Altitude(m)": 566919.4410351693,
        "Argument of Periapsis(deg)": 0.014988874618983185,
        "Eccentricity": 0.0,
        "Inclination(deg)": 53.0,
        "Latitude(deg)": -40.96746887259564,
        "Longitude(deg)": 172.61521056215187,
        "Mean Anomaly(deg)": -54.86445824706118,
        "RAAN(deg)": 314.97769288666865,
        "Satellite Name": "Starlink Shell 1 1403",
        "Satellite Number": 1403,
        "Semi-Major Axis(m)": 6931778.249405717,
        "Time(s)": 430
    },
    {
        "Altitude(m)": 566761.6009750523,
        "Argument of Periapsis(deg)": 0.015337453098494424,
        "Eccentricity": 0.0,
        "Inclination(deg)": 53.0,
        "Latitude(deg)": -40.58558442556601,
        "Longitude(deg)": 173.22702799026675,
        "Mean Anomaly(deg)": -54.23762704350453,
        "RAAN(deg)": 314.97717411659124,
        "Satellite Name": "Starlink Shell 1 1403",
        "Satellite Number": 1403,
        "Semi-Major Axis(m)": 6931778.249405717,
        "Time(s)": 440
    },
    {
        "Altitude(m)": 566602.2871868667,
        "Argument of Periapsis(deg)": 0.01568603157800566,
        "Eccentricity": 0.0,
        "Inclination(deg)": 53.0,
        "Latitude(deg)": -40.20001537526995,
        "Longitude(deg)": 173.83144424932254,
        "Mean Anomaly(deg)": -53.61079583994789,
        "RAAN(deg)": 314.9766553465137,
        "Satellite Name": "Starlink Shell 1 1403",
        "Satellite Number": 1403,
        "Semi-Major Axis(m)": 6931778.249405717,
        "Time(s)": 450
    },
    {
        "Altitude(m)": 566441.5617513735,
        "Argument of Periapsis(deg)": 0.0160346100575169,
        "Eccentricity": 0.0,
        "Inclination(deg)": 53.0,
        "Latitude(deg)": -39.81085075975909,
        "Longitude(deg)": 174.42857410989785,
        "Mean Anomaly(deg)": -52.98396463639109,
        "RAAN(deg)": 314.97613657643626,
        "Satellite Name": "Starlink Shell 1 1403",
        "Satellite Number": 1403,
        "Semi-Major Axis(m)": 6931778.249405717,
        "Time(s)": 460
    },
    {
        "Altitude(m)": 566279.4872328182,
        "Argument of Periapsis(deg)": 0.016383188537028134,
        "Eccentricity": 0.0,
        "Inclination(deg)": 53.0,
        "Latitude(deg)": -39.418177800981596,
        "Longitude(deg)": 175.01853408951504,
        "Mean Anomaly(deg)": -52.357133432834395,
        "RAAN(deg)": 314.9756178063588,
        "Satellite Name": "Starlink Shell 1 1403",
        "Satellite Number": 1403,
        "Semi-Major Axis(m)": 6931778.249405717,
        "Time(s)": 470
    },
    {
        "Altitude(m)": 566116.1266512284,
        "Argument of Periapsis(deg)": 0.01673176701653937,
        "Eccentricity": 0.0,
        "Inclination(deg)": 53.0,
        "Latitude(deg)": -39.02208191705752,
        "Longitude(deg)": 175.60144120807513,
        "Mean Anomaly(deg)": -51.7303022292777,
        "RAAN(deg)": 314.9750990362813,
        "Satellite Name": "Starlink Shell 1 1403",
        "Satellite Number": 1403,
        "Semi-Major Axis(m)": 6931778.249405717,
        "Time(s)": 480
    },
    {
        "Altitude(m)": 565951.5434544485,
        "Argument of Periapsis(deg)": 0.017080345496050607,
        "Eccentricity": 0.0,
        "Inclination(deg)": 53.0,
        "Latitude(deg)": -38.62264673735974,
        "Longitude(deg)": 176.17741327174713,
        "Mean Anomaly(deg)": -51.103471025721,
        "RAAN(deg)": 314.9745802662038,
        "Satellite Name": "Starlink Shell 1 1403",
        "Satellite Number": 1403,
        "Semi-Major Axis(m)": 6931778.249405717,
        "Time(s)": 490
    },
    {
        "Altitude(m)": 565785.8014899639,
        "Argument of Periapsis(deg)": 0.017428923975561842,
        "Eccentricity": 0.0,
        "Inclination(deg)": 53.0,
        "Latitude(deg)": -38.21995412012392,
        "Longitude(deg)": 176.74656917188403,
        "Mean Anomaly(deg)": -50.4766398221642,
        "RAAN(deg)": 314.97406149612635,
        "Satellite Name": "Starlink Shell 1 1403",
        "Satellite Number": 1403,
        "Semi-Major Axis(m)": 6931778.249405717,
        "Time(s)": 500
    },
    {
        "Altitude(m)": 565618.9649765636,
        "Argument of Periapsis(deg)": 0.01777750245507308,
        "Eccentricity": 0.0,
        "Inclination(deg)": 53.0,
        "Latitude(deg)": -37.81408417232722,
        "Longitude(deg)": 177.3090276855178,
        "Mean Anomaly(deg)": -49.84980861860752,
        "RAAN(deg)": 314.9735427260489,
        "Satellite Name": "Starlink Shell 1 1403",
        "Satellite Number": 1403,
        "Semi-Major Axis(m)": 6931778.249405717,
        "Time(s)": 510
    },
    {
        "Altitude(m)": 565451.0984757859,
        "Argument of Periapsis(deg)": 0.018126080934584315,
        "Eccentricity": 0.0,
        "Inclination(deg)": 53.0,
        "Latitude(deg)": -37.405115271597815,
        "Longitude(deg)": 177.86490780259237,
        "Mean Anomaly(deg)": -49.22297741505087,
        "RAAN(deg)": 314.97302395597137,
        "Satellite Name": "Starlink Shell 1 1403",
        "Satellite Number": 1403,
        "Semi-Major Axis(m)": 6931778.249405717,
        "Time(s)": 520
    },
    {
        "Altitude(m)": 565282.2668632086,
        "Argument of Periapsis(deg)": 0.018474659414095554,
        "Eccentricity": 0.0,
        "Inclination(deg)": 53.0,
        "Latitude(deg)": -36.99312408992688,
        "Longitude(deg)": 178.41432906646116,
        "Mean Anomaly(deg)": -48.596146211494116,
        "RAAN(deg)": 314.97250518589397,
        "Satellite Name": "Starlink Shell 1 1403",
        "Satellite Number": 1403,
        "Semi-Major Axis(m)": 6931778.249405717,
        "Time(s)": 530
    },
    {
        "Altitude(m)": 565112.5352995931,
        "Argument of Periapsis(deg)": 0.018823237893606792,
        "Eccentricity": 0.0,
        "Inclination(deg)": 53.0,
        "Latitude(deg)": -36.57818561896603,
        "Longitude(deg)": 178.95741041418043,
        "Mean Anomaly(deg)": -47.96931500793732,
        "RAAN(deg)": 314.9719864158165,
        "Satellite Name": "Starlink Shell 1 1403",
        "Satellite Number": 1403,
        "Semi-Major Axis(m)": 6931778.249405717,
        "Time(s)": 540
    },
    {
        "Altitude(m)": 564941.9692018643,
        "Argument of Periapsis(deg)": 0.019171816373118027,
        "Eccentricity": 0.0,
        "Inclination(deg)": 53.0,
        "Latitude(deg)": -36.16037319671809,
        "Longitude(deg)": 179.49427054174188,
        "Mean Anomaly(deg)": -47.342483804380684,
        "RAAN(deg)": 314.971467645739,
        "Satellite Name": "Starlink Shell 1 1403",
        "Satellite Number": 1403,
        "Semi-Major Axis(m)": 6931778.249405717,
        "Time(s)": 550
    },
    {
        "Altitude(m)": 564770.6342139768,
        "Argument of Periapsis(deg)": 0.019520394852629266,
        "Eccentricity": 0.0,
        "Inclination(deg)": 53.0,
        "Latitude(deg)": -35.73975853543264,
        "Longitude(deg)": -179.97497171921944,
        "Mean Anomaly(deg)": -46.71565260082394,
        "RAAN(deg)": 314.9709488756615,
        "Satellite Name": "Starlink Shell 1 1403",
        "Satellite Number": 1403,
        "Semi-Major Axis(m)": 6931778.249405717,
        "Time(s)": 560
    }
]